ONEWEB-0223             
1 48768U 21045B   26012.27574629  .00000027  00000+0  37497-4 0  9990
2 48768  87.9015 290.3020 0001353  60.7816 299.3449 13.15547937223902
ONEWEB-0230             
1 48769U 21045C   26012.17116460 -.00000038  00000+0 -13577-3 0  9991
2 48769  87.9006 290.3503 0001801  74.6877 285.4452 13.15548944224155
ONEWEB-0237             
1 48770U 21045D   26012.23613115  .00000052  00000+0  10525-3 0  9993
2 48770  87.9008 290.3381 0001582  63.8773 296.2521 13.15549008223882
ONEWEB-0235             
1 48771U 21045E   26012.28683836  .00000179  00000+0  44263-3 0  9992
2 48771  87.9010 290.3006 0001424  57.3646 302.7622 13.15548799223883
ONEWEB-0242             
1 48772U 21045F   26012.28050118  .00000115  00000+0  27150-3 0  9990
2 48772  87.9017 290.2964 0001686  67.8630 292.2680 13.15548695223929
ONEWEB-0241             
1 48773U 21045G   26012.26782698 -.00000027  00000+0 -10501-3 0  9990
2 48773  87.9008 290.3336 0001242  68.1359 291.9904 13.15549719223837
ONEWEB-0243             
1 48774U 21045H   26012.29950886  .00000255  00000+0  64310-3 0  9998
2 48774  87.9009 290.3375 0001632  58.9800 301.1490 13.15552500223862
ONEWEB-0222             
1 48775U 21045J   26012.28285907  .00000120  00000+0  28388-3 0  9999
2 48775  87.9014 290.2967 0001495  66.6541 293.4746 13.15550775223904
ONEWEB-0244             
1 48776U 21045K   26012.30901922  .00000100  00000+0  23280-3 0  9999
2 48776  87.9020 290.2799 0001589  68.0621 292.0679 13.15548924224470
ONEWEB-0247             
1 48777U 21045L   26012.30583653  .00000166  00000+0  40609-3 0  9993
2 48777  87.9003 290.3320 0001704  43.5779 316.5486 13.15547643223917
ONEWEB-0245             
1 48778U 21045M   26012.30110289  .00000232  00000+0  58279-3 0  9991
2 48778  87.9011 290.2989 0001367  73.6247 286.5033 13.15549188223882
ONEWEB-0229             
1 48779U 21045N   26012.22028937  .00000282  00000+0  71384-3 0  9998
2 48779  87.9012 290.3128 0001686  68.7335 291.3976 13.15549256223906
ONEWEB-0228             
1 48780U 21045P   26012.25368960 -.00000021  00000+0 -89973-4 0  9993
2 48780  87.9014 290.2927 0001597  70.7140 289.4163 13.15550682223826
ONEWEB-0232             
1 48781U 21045Q   26012.30425841  .00000156  00000+0  38082-3 0  9993
2 48781  87.9026 290.2774 0001576  72.1718 287.9584 13.15550528224150
ONEWEB-0231             
1 48782U 21045R   26012.28207398  .00000139  00000+0  33508-3 0  9995
2 48782  87.9004 290.3188 0001562  64.6793 295.4499 13.15548647223844
ONEWEB-0234             
1 48783U 21045S   26012.24389871  .00000028  00000+0  39631-4 0  9990
2 48783  87.9010 290.3019 0001429 106.0945 254.0343 13.15550584223973
ONEWEB-0238             
1 48784U 21045T   26012.24419059 -.00000010  00000+0 -60897-4 0  9994
2 48784  87.9012 290.2946 0001479  90.0479 270.0821 13.15550006223870
