[{"OBJECT_NAME":"ONEWEB-0223","OBJECT_ID":"2021-045B","EPOCH":"2026-01-12T06:37:04.479456","MEAN_MOTION":13.15547937,"ECCENTRICITY":0.00013534,"INCLINATION":87.9015,"RA_OF_ASC_NODE":290.302,"ARG_OF_PERICENTER":60.7816,"MEAN_ANOMALY":299.3449,"EPHEMERIS_TYPE":0,"CLASSIFICATION_TYPE":"U","NORAD_CAT_ID":48768,"ELEMENT_SET_NO":999,"REV_AT_EPOCH":22390,"BSTAR":3.7496657e-5,"MEAN_MOTION_DOT":2.7e-7,"MEAN_MOTION_DDOT":0},{"OBJECT_NAME":"ONEWEB-0230","OBJECT_ID":"2021-045C","EPOCH":"2026-01-12T04:06:28.621440","MEAN_MOTION":13.15548944,"ECCENTRICITY":0.0001801,"INCLINATION":87.9006,"RA_OF_ASC_NODE":290.3503,"ARG_OF_PERICENTER":74.6877,"MEAN_ANOMALY":285.4452,"EPHEMERIS_TYPE":0,"CLASSIFICATION_TYPE":"U","NORAD_CAT_ID":48769,"ELEMENT_SET_NO":999,"REV_AT_EPOCH":22415,"BSTAR":-0.00013577436,"MEAN_MOTION_DOT":-3.8e-7,"MEAN_MOTION_DDOT":0},{"OBJECT_NAME":"ONEWEB-0237","OBJECT_ID":"2021-045D","EPOCH":"2026-01-12T05:40:01.731360","MEAN_MOTION":13.15549008,"ECCENTRICITY":0.00015826,"INCLINATION":87.9008,"RA_OF_ASC_NODE":290.3381,"ARG_OF_PERICENTER":63.8773,"MEAN_ANOMALY":296.2521,"EPHEMERIS_TYPE":0,"CLASSIFICATION_TYPE":"U","NORAD_CAT_ID":48770,"ELEMENT_SET_NO":999,"REV_AT_EPOCH":22388,"BSTAR":0.00010525439,"MEAN_MOTION_DOT":5.2e-7,"MEAN_MOTION_DDOT":0},{"OBJECT_NAME":"ONEWEB-0235","OBJECT_ID":"2021-045E","EPOCH":"2026-01-12T06:53:02.834304","MEAN_MOTION":13.15548799,"ECCENTRICITY":0.00014245,"INCLINATION":87.901,"RA_OF_ASC_NODE":290.3006,"ARG_OF_PERICENTER":57.3646,"MEAN_ANOMALY":302.7622,"EPHEMERIS_TYPE":0,"CLASSIFICATION_TYPE":"U","NORAD_CAT_ID":48771,"ELEMENT_SET_NO":999,"REV_AT_EPOCH":22388,"BSTAR":0.00044262585,"MEAN_MOTION_DOT":1.79e-6,"MEAN_MOTION_DDOT":0},{"OBJECT_NAME":"ONEWEB-0242","OBJECT_ID":"2021-045F","EPOCH":"2026-01-12T06:43:55.301952","MEAN_MOTION":13.15548695,"ECCENTRICITY":0.00016866,"INCLINATION":87.9017,"RA_OF_ASC_NODE":290.2964,"ARG_OF_PERICENTER":67.863,"MEAN_ANOMALY":292.268,"EPHEMERIS_TYPE":0,"CLASSIFICATION_TYPE":"U","NORAD_CAT_ID":48772,"ELEMENT_SET_NO":999,"REV_AT_EPOCH":22392,"BSTAR":0.00027149947,"MEAN_MOTION_DOT":1.15e-6,"MEAN_MOTION_DDOT":0},{"OBJECT_NAME":"ONEWEB-0241","OBJECT_ID":"2021-045G","EPOCH":"2026-01-12T06:25:40.251072","MEAN_MOTION":13.15549719,"ECCENTRICITY":0.00012424,"INCLINATION":87.9008,"RA_OF_ASC_NODE":290.3336,"ARG_OF_PERICENTER":68.1359,"MEAN_ANOMALY":291.9904,"EPHEMERIS_TYPE":0,"CLASSIFICATION_TYPE":"U","NORAD_CAT_ID":48773,"ELEMENT_SET_NO":999,"REV_AT_EPOCH":22383,"BSTAR":-0.0001050131,"MEAN_MOTION_DOT":-2.7e-7,"MEAN_MOTION_DDOT":0},{"OBJECT_NAME":"ONEWEB-0243","OBJECT_ID":"2021-045H","EPOCH":"2026-01-12T07:11:17.565504","MEAN_MOTION":13.155525,"ECCENTRICITY":0.0001632,"INCLINATION":87.9009,"RA_OF_ASC_NODE":290.3375,"ARG_OF_PERICENTER":58.98,"MEAN_ANOMALY":301.149,"EPHEMERIS_TYPE":0,"CLASSIFICATION_TYPE":"U","NORAD_CAT_ID":48774,"ELEMENT_SET_NO":999,"REV_AT_EPOCH":22386,"BSTAR":0.00064309609,"MEAN_MOTION_DOT":2.55e-6,"MEAN_MOTION_DDOT":0},{"OBJECT_NAME":"ONEWEB-0222","OBJECT_ID":"2021-045J","EPOCH":"2026-01-12T06:47:19.023648","MEAN_MOTION":13.15550775,"ECCENTRICITY":0.00014954,"INCLINATION":87.9014,"RA_OF_ASC_NODE":290.2967,"ARG_OF_PERICENTER":66.6541,"MEAN_ANOMALY":293.4746,"EPHEMERIS_TYPE":0,"CLASSIFICATION_TYPE":"U","NORAD_CAT_ID":48775,"ELEMENT_SET_NO":999,"REV_AT_EPOCH":22390,"BSTAR":0.00028388138,"MEAN_MOTION_DOT":1.2e-6,"MEAN_MOTION_DDOT":0},{"OBJECT_NAME":"ONEWEB-0244","OBJECT_ID":"2021-045K","EPOCH":"2026-01-12T07:24:59.260608","MEAN_MOTION":13.15548924,"ECCENTRICITY":0.00015897,"INCLINATION":87.902,"RA_OF_ASC_NODE":290.2799,"ARG_OF_PERICENTER":68.0621,"MEAN_ANOMALY":292.0679,"EPHEMERIS_TYPE":0,"CLASSIFICATION_TYPE":"U","NORAD_CAT_ID":48776,"ELEMENT_SET_NO":999,"REV_AT_EPOCH":22447,"BSTAR":0.0002327989,"MEAN_MOTION_DOT":1.0e-6,"MEAN_MOTION_DDOT":0},{"OBJECT_NAME":"ONEWEB-0247","OBJECT_ID":"2021-045L","EPOCH":"2026-01-12T07:20:24.276192","MEAN_MOTION":13.15547643,"ECCENTRICITY":0.00017048,"INCLINATION":87.9003,"RA_OF_ASC_NODE":290.332,"ARG_OF_PERICENTER":43.5779,"MEAN_ANOMALY":316.5486,"EPHEMERIS_TYPE":0,"CLASSIFICATION_TYPE":"U","NORAD_CAT_ID":48777,"ELEMENT_SET_NO":999,"REV_AT_EPOCH":22391,"BSTAR":0.00040608936,"MEAN_MOTION_DOT":1.66e-6,"MEAN_MOTION_DDOT":0},{"OBJECT_NAME":"ONEWEB-0245","OBJECT_ID":"2021-045M","EPOCH":"2026-01-12T07:13:35.289696","MEAN_MOTION":13.15549188,"ECCENTRICITY":0.0001367,"INCLINATION":87.9011,"RA_OF_ASC_NODE":290.2989,"ARG_OF_PERICENTER":73.6247,"MEAN_ANOMALY":286.5033,"EPHEMERIS_TYPE":0,"CLASSIFICATION_TYPE":"U","NORAD_CAT_ID":48778,"ELEMENT_SET_NO":999,"REV_AT_EPOCH":22388,"BSTAR":0.00058279222,"MEAN_MOTION_DOT":2.32e-6,"MEAN_MOTION_DDOT":0},{"OBJECT_NAME":"ONEWEB-0229","OBJECT_ID":"2021-045N","EPOCH":"2026-01-12T05:17:13.001568","MEAN_MOTION":13.15549256,"ECCENTRICITY":0.00016869,"INCLINATION":87.9012,"RA_OF_ASC_NODE":290.3128,"ARG_OF_PERICENTER":68.7335,"MEAN_ANOMALY":291.3976,"EPHEMERIS_TYPE":0,"CLASSIFICATION_TYPE":"U","NORAD_CAT_ID":48779,"ELEMENT_SET_NO":999,"REV_AT_EPOCH":22390,"BSTAR":0.00071383609,"MEAN_MOTION_DOT":2.82e-6,"MEAN_MOTION_DDOT":0},{"OBJECT_NAME":"ONEWEB-0228","OBJECT_ID":"2021-045P","EPOCH":"2026-01-12T06:05:18.781440","MEAN_MOTION":13.15550682,"ECCENTRICITY":0.00015976,"INCLINATION":87.9014,"RA_OF_ASC_NODE":290.2927,"ARG_OF_PERICENTER":70.714,"MEAN_ANOMALY":289.4163,"EPHEMERIS_TYPE":0,"CLASSIFICATION_TYPE":"U","NORAD_CAT_ID":48780,"ELEMENT_SET_NO":999,"REV_AT_EPOCH":22382,"BSTAR":-8.9973351e-5,"MEAN_MOTION_DOT":-2.1e-7,"MEAN_MOTION_DDOT":0},{"OBJECT_NAME":"ONEWEB-0232","OBJECT_ID":"2021-045Q","EPOCH":"2026-01-12T07:18:07.926624","MEAN_MOTION":13.15550528,"ECCENTRICITY":0.00015761,"INCLINATION":87.9026,"RA_OF_ASC_NODE":290.2774,"ARG_OF_PERICENTER":72.1718,"MEAN_ANOMALY":287.9584,"EPHEMERIS_TYPE":0,"CLASSIFICATION_TYPE":"U","NORAD_CAT_ID":48781,"ELEMENT_SET_NO":999,"REV_AT_EPOCH":22415,"BSTAR":0.00038081633,"MEAN_MOTION_DOT":1.56e-6,"MEAN_MOTION_DDOT":0},{"OBJECT_NAME":"ONEWEB-0231","OBJECT_ID":"2021-045R","EPOCH":"2026-01-12T06:46:11.191872","MEAN_MOTION":13.15548647,"ECCENTRICITY":0.00015623,"INCLINATION":87.9004,"RA_OF_ASC_NODE":290.3188,"ARG_OF_PERICENTER":64.6793,"MEAN_ANOMALY":295.4499,"EPHEMERIS_TYPE":0,"CLASSIFICATION_TYPE":"U","NORAD_CAT_ID":48782,"ELEMENT_SET_NO":999,"REV_AT_EPOCH":22384,"BSTAR":0.00033508274,"MEAN_MOTION_DOT":1.39e-6,"MEAN_MOTION_DDOT":0},{"OBJECT_NAME":"ONEWEB-0234","OBJECT_ID":"2021-045S","EPOCH":"2026-01-12T05:51:12.848544","MEAN_MOTION":13.15550584,"ECCENTRICITY":0.00014298,"INCLINATION":87.901,"RA_OF_ASC_NODE":290.3019,"ARG_OF_PERICENTER":106.0945,"MEAN_ANOMALY":254.0343,"EPHEMERIS_TYPE":0,"CLASSIFICATION_TYPE":"U","NORAD_CAT_ID":48783,"ELEMENT_SET_NO":999,"REV_AT_EPOCH":22397,"BSTAR":3.9631292e-5,"MEAN_MOTION_DOT":2.8e-7,"MEAN_MOTION_DDOT":0},{"OBJECT_NAME":"ONEWEB-0238","OBJECT_ID":"2021-045T","EPOCH":"2026-01-12T05:51:38.066976","MEAN_MOTION":13.15550006,"ECCENTRICITY":0.00014795,"INCLINATION":87.9012,"RA_OF_ASC_NODE":290.2946,"ARG_OF_PERICENTER":90.0479,"MEAN_ANOMALY":270.0821,"EPHEMERIS_TYPE":0,"CLASSIFICATION_TYPE":"U","NORAD_CAT_ID":48784,"ELEMENT_SET_NO":999,"REV_AT_EPOCH":22387,"BSTAR":-6.0896984e-5,"MEAN_MOTION_DOT":-1.0e-7,"MEAN_MOTION_DDOT":0}]
